start=new Date('2022-01-08T00:00:00.000Z').valueOf();
sats=[{"TIME_SYSTEM":"UTC","MEAN_MOTION_DDOT":"0.0000000000000","NORAD_CAT_ID":"48010","SEMIMAJOR_AXIS":"6925.368","BSTAR":"0.00008267100000","RA_OF_ASC_NODE":"328.5466","MEAN_ANOMALY":"294.9801","REV_AT_EPOCH":"4512","RCS_SIZE":"LARGE","ELEMENT_SET_NO":"999","COUNTRY_CODE":"US","REF_FRAME":"TEME","ECCENTRICITY":"0.00015760","OBJECT_NAME":"STARLINK-2226","EPOCH":"2022-01-07T19:43:47.826048","CLASSIFICATION_TYPE":"U","APOAPSIS":"548.324","CENTER_NAME":"EARTH","PERIOD":"95.593","LAUNCH_DATE":"2021-03-24","TLE_LINE2":"2 48010  53.0534 328.5466 0001576  65.1351 294.9801 15.06393764 45128","PERIAPSIS":"546.141","MEAN_MOTION_DOT":"0.00000950","ARG_OF_PERICENTER":"65.1351","DECAY_DATE":null,"OBJECT_TYPE":"PAYLOAD","MEAN_MOTION":"15.06393764","MEAN_ELEMENT_THEORY":"SGP4","OBJECT_ID":"2021-024AK","SITE":"AFETR","EPHEMERIS_TYPE":"0","INCLINATION":"53.0534","GP_ID":"193426050","FILE":"3266804","TLE_LINE1":"1 48010U 21024AK  22007.82208132  .00000950  00000-0  82671-4 0  9991"},{"REV_AT_EPOCH":"4546","RA_OF_ASC_NODE":"308.4382","MEAN_ANOMALY":"296.3430","RCS_SIZE":"LARGE","ELEMENT_SET_NO":"999","MEAN_MOTION_DDOT":"0.0000000000000","TIME_SYSTEM":"UTC","BSTAR":"0.00008744900000","SEMIMAJOR_AXIS":"6925.358","NORAD_CAT_ID":"48011","EPOCH":"2022-01-07T20:16:56.265888","APOAPSIS":"548.555","CLASSIFICATION_TYPE":"U","CENTER_NAME":"EARTH","LAUNCH_DATE":"2021-03-24","PERIOD":"95.592","COUNTRY_CODE":"US","ECCENTRICITY":"0.00019230","REF_FRAME":"TEME","OBJECT_NAME":"STARLINK-2272","ARG_OF_PERICENTER":"63.7756","OBJECT_TYPE":"PAYLOAD","DECAY_DATE":null,"MEAN_MOTION_DOT":"0.00001021","TLE_LINE2":"2 48011  53.0578 308.4382 0001923  63.7756 296.3430 15.06396951 45462","PERIAPSIS":"545.891","INCLINATION":"53.0578","FILE":"3266804","GP_ID":"193425790","TLE_LINE1":"1 48011U 21024AL  22007.84509567  .00001021  00000-0  87449-4 0  9998","MEAN_MOTION":"15.06396951","MEAN_ELEMENT_THEORY":"SGP4","SITE":"AFETR","OBJECT_ID":"2021-024AL","EPHEMERIS_TYPE":"0"},{"MEAN_MOTION":"15.06393500","MEAN_ELEMENT_THEORY":"SGP4","SITE":"AFETR","OBJECT_ID":"2021-024AM","EPHEMERIS_TYPE":"0","INCLINATION":"53.0567","FILE":"3266804","GP_ID":"193425052","TLE_LINE1":"1 48012U 21024AM  22007.91653596  .00000383  00000-0  44613-4 0  9995","MEAN_MOTION_DOT":"0.00000383","TLE_LINE2":"2 48012  53.0567 283.1193 0002190  63.4424 296.6789 15.06393500 45823","PERIAPSIS":"545.717","ARG_OF_PERICENTER":"63.4424","OBJECT_TYPE":"PAYLOAD","DECAY_DATE":null,"COUNTRY_CODE":"US","REF_FRAME":"TEME","ECCENTRICITY":"0.00021900","OBJECT_NAME":"STARLINK-2216","EPOCH":"2022-01-07T21:59:48.706944","APOAPSIS":"548.750","CLASSIFICATION_TYPE":"U","CENTER_NAME":"EARTH","LAUNCH_DATE":"2021-03-24","PERIOD":"95.593","MEAN_MOTION_DDOT":"0.0000000000000","TIME_SYSTEM":"UTC","SEMIMAJOR_AXIS":"6925.368","BSTAR":"0.00004461300000","NORAD_CAT_ID":"48012","REV_AT_EPOCH":"4582","RA_OF_ASC_NODE":"283.1193","MEAN_ANOMALY":"296.6789","RCS_SIZE":"LARGE","ELEMENT_SET_NO":"999"},{"PERIAPSIS":"545.789","TLE_LINE2":"2 48013  53.0553 293.3485 0002083  54.9758 305.1426 15.06394268 45154","MEAN_MOTION_DOT":"-0.00000115","DECAY_DATE":null,"OBJECT_TYPE":"PAYLOAD","ARG_OF_PERICENTER":"54.9758","OBJECT_ID":"2021-024AN","SITE":"AFETR","EPHEMERIS_TYPE":"0","MEAN_MOTION":"15.06394268","MEAN_ELEMENT_THEORY":"SGP4","GP_ID":"193401067","FILE":"3266692","TLE_LINE1":"1 48013U 21024AN  22007.86769797 -.00000115  00000-0  11189-4 0  9997","INCLINATION":"53.0553","TIME_SYSTEM":"UTC","MEAN_MOTION_DDOT":"0.0000000000000","NORAD_CAT_ID":"48013","SEMIMAJOR_AXIS":"6925.366","BSTAR":"0.00001118900000","ELEMENT_SET_NO":"999","RA_OF_ASC_NODE":"293.3485","MEAN_ANOMALY":"305.1426","REV_AT_EPOCH":"4515","RCS_SIZE":"LARGE","OBJECT_NAME":"STARLINK-2243","COUNTRY_CODE":"US","ECCENTRICITY":"0.00020830","REF_FRAME":"TEME","CENTER_NAME":"EARTH","PERIOD":"95.593","LAUNCH_DATE":"2021-03-24","EPOCH":"2022-01-07T20:49:29.104608","CLASSIFICATION_TYPE":"U","APOAPSIS":"548.674"},{"MEAN_MOTION_DDOT":"0.0000000000000","TIME_SYSTEM":"UTC","NORAD_CAT_ID":"48014","BSTAR":"-0.00168400000000","SEMIMAJOR_AXIS":"6927.870","RA_OF_ASC_NODE":"256.9776","MEAN_ANOMALY":"82.9432","REV_AT_EPOCH":"358","RCS_SIZE":"LARGE","ELEMENT_SET_NO":"999","COUNTRY_CODE":"US","ECCENTRICITY":"0.00021290","REF_FRAME":"TEME","OBJECT_NAME":"STARLINK-2283","EPOCH":"2022-01-07T22:00:00.999936","APOAPSIS":"551.210","CLASSIFICATION_TYPE":"U","CENTER_NAME":"EARTH","LAUNCH_DATE":"2021-03-24","PERIOD":"95.644","TLE_LINE2":"2 48014  53.0521 256.9776 0002129  58.8955  82.9432 15.05577517  3588","PERIAPSIS":"548.261","MEAN_MOTION_DOT":"-0.00024729","ARG_OF_PERICENTER":"58.8955","DECAY_DATE":null,"OBJECT_TYPE":"PAYLOAD","MEAN_MOTION":"15.05577517","MEAN_ELEMENT_THEORY":"SGP4","OBJECT_ID":"2021-024AP","SITE":"AFETR","EPHEMERIS_TYPE":"0","INCLINATION":"53.0521","GP_ID":"193425551","FILE":"3266804","TLE_LINE1":"1 48014U 21024AP  22007.91667824 -.00024729  00000-0 -16840-2 0  9997"},{"MEAN_MOTION_DOT":"-0.00012682","TLE_LINE2":"2 48015  53.0511 199.9500 0001884 152.3494  93.3049 15.90971147  3721","PERIAPSIS":"298.308","OBJECT_TYPE":"PAYLOAD","DECAY_DATE":null,"ARG_OF_PERICENTER":"152.3494","SITE":"AFETR","OBJECT_ID":"2021-024AQ","EPHEMERIS_TYPE":"0","MEAN_MOTION":"15.90971147","MEAN_ELEMENT_THEORY":"SGP4","FILE":"3266804","GP_ID":"193426290","TLE_LINE1":"1 48015U 21024AQ  22007.91667824 -.00012682  11088-4 -28468-4 0  9996","INCLINATION":"53.0511","MEAN_MOTION_DDOT":"0.0000110880000","TIME_SYSTEM":"UTC","SEMIMAJOR_AXIS":"6677.701","BSTAR":"-0.00002846800000","NORAD_CAT_ID":"48015","ELEMENT_SET_NO":"999","REV_AT_EPOCH":"372","MEAN_ANOMALY":"93.3049","RA_OF_ASC_NODE":"199.9500","RCS_SIZE":"LARGE","OBJECT_NAME":"STARLINK-2281","REF_FRAME":"TEME","COUNTRY_CODE":"US","ECCENTRICITY":"0.00018840","CENTER_NAME":"EARTH","LAUNCH_DATE":"2021-03-24","PERIOD":"90.511","EPOCH":"2022-01-07T22:00:00.999936","CLASSIFICATION_TYPE":"U","APOAPSIS":"300.824"},{"MEAN_MOTION_DOT":"-0.00019505","TLE_LINE2":"2 48016  53.0525 243.1126 0002163  61.2764  64.7436 15.06404501  3591","PERIAPSIS":"545.702","OBJECT_TYPE":"PAYLOAD","DECAY_DATE":null,"ARG_OF_PERICENTER":"61.2764","EPHEMERIS_TYPE":"0","SITE":"AFETR","OBJECT_ID":"2021-024AR","MEAN_ELEMENT_THEORY":"SGP4","MEAN_MOTION":"15.06404501","TLE_LINE1":"1 48016U 21024AR  22007.91667824 -.00019505  00000-0 -12939-2 0  9990","FILE":"3266804","GP_ID":"193424553","INCLINATION":"53.0525","SEMIMAJOR_AXIS":"6925.335","BSTAR":"-0.00129390000000","NORAD_CAT_ID":"48016","TIME_SYSTEM":"UTC","MEAN_MOTION_DDOT":"0.0000000000000","ELEMENT_SET_NO":"999","RCS_SIZE":"LARGE","REV_AT_EPOCH":"359","MEAN_ANOMALY":"64.7436","RA_OF_ASC_NODE":"243.1126","OBJECT_NAME":"STARLINK-2284","COUNTRY_CODE":"US","REF_FRAME":"TEME","ECCENTRICITY":"0.00021630","LAUNCH_DATE":"2021-03-24","PERIOD":"95.592","CENTER_NAME":"EARTH","APOAPSIS":"548.698","CLASSIFICATION_TYPE":"U","EPOCH":"2022-01-07T22:00:00.999936"},{"INCLINATION":"53.0497","GP_ID":"193394058","FILE":"3266507","TLE_LINE1":"1 48017U 21024AS  22007.18898640  .00013191  00000-0  50275-3 0  9991","MEAN_MOTION":"15.27034609","MEAN_ELEMENT_THEORY":"SGP4","OBJECT_ID":"2021-024AS","SITE":"AFETR","EPHEMERIS_TYPE":"0","ARG_OF_PERICENTER":"47.0010","DECAY_DATE":null,"OBJECT_TYPE":"PAYLOAD","PERIAPSIS":"483.482","TLE_LINE2":"2 48017  53.0497 310.2944 0001753  47.0010 313.1135 15.27034609 45329","MEAN_MOTION_DOT":"0.00013191","EPOCH":"2022-01-07T04:32:08.424960","CLASSIFICATION_TYPE":"U","APOAPSIS":"485.888","CENTER_NAME":"EARTH","PERIOD":"94.300","LAUNCH_DATE":"2021-03-24","ECCENTRICITY":"0.00017530","COUNTRY_CODE":"US","REF_FRAME":"TEME","OBJECT_NAME":"STARLINK-2239","RA_OF_ASC_NODE":"310.2944","MEAN_ANOMALY":"313.1135","REV_AT_EPOCH":"4532","RCS_SIZE":"LARGE","ELEMENT_SET_NO":"999","TIME_SYSTEM":"UTC","MEAN_MOTION_DDOT":"0.0000000000000","NORAD_CAT_ID":"48017","SEMIMAJOR_AXIS":"6862.820","BSTAR":"0.00050275000000"},{"EPHEMERIS_TYPE":"0","OBJECT_ID":"2021-024AT","SITE":"AFETR","MEAN_ELEMENT_THEORY":"SGP4","MEAN_MOTION":"15.06386051","TLE_LINE1":"1 48018U 21024AT  22007.55161144 -.00000279  00000-0  19210-6 0  9996","GP_ID":"193394808","FILE":"3266507","INCLINATION":"53.0556","PERIAPSIS":"545.983","TLE_LINE2":"2 48018  53.0556 314.7548 0001838  56.4651 303.6514 15.06386051 45350","MEAN_MOTION_DOT":"-0.00000279","DECAY_DATE":null,"OBJECT_TYPE":"PAYLOAD","ARG_OF_PERICENTER":"56.4651","OBJECT_NAME":"STARLINK-2282","REF_FRAME":"TEME","COUNTRY_CODE":"US","ECCENTRICITY":"0.00018380","PERIOD":"95.593","LAUNCH_DATE":"2021-03-24","CENTER_NAME":"EARTH","CLASSIFICATION_TYPE":"U","APOAPSIS":"548.529","EPOCH":"2022-01-07T13:14:19.228416","NORAD_CAT_ID":"48018","SEMIMAJOR_AXIS":"6925.391","BSTAR":"0.00000019210000","TIME_SYSTEM":"UTC","MEAN_MOTION_DDOT":"0.0000000000000","ELEMENT_SET_NO":"999","RCS_SIZE":"LARGE","MEAN_ANOMALY":"303.6514","RA_OF_ASC_NODE":"314.7548","REV_AT_EPOCH":"4535"},{"ECCENTRICITY":"0.00018370","COUNTRY_CODE":"US","REF_FRAME":"TEME","OBJECT_NAME":"STARLINK-2285","APOAPSIS":"548.522","CLASSIFICATION_TYPE":"U","EPOCH":"2022-01-07T20:26:56.003712","PERIOD":"95.593","LAUNCH_DATE":"2021-03-24","CENTER_NAME":"EARTH","NORAD_CAT_ID":"48019","SEMIMAJOR_AXIS":"6925.385","BSTAR":"0.00008817400000","MEAN_MOTION_DDOT":"0.0000000000000","TIME_SYSTEM":"UTC","RCS_SIZE":"LARGE","MEAN_ANOMALY":"299.8984","RA_OF_ASC_NODE":"303.4221","REV_AT_EPOCH":"4547","ELEMENT_SET_NO":"999","MEAN_ELEMENT_THEORY":"SGP4","MEAN_MOTION":"15.06388250","EPHEMERIS_TYPE":"0","OBJECT_ID":"2021-024AU","SITE":"AFETR","INCLINATION":"53.0561","TLE_LINE1":"1 48019U 21024AU  22007.85203708  .00001032  00000-0  88174-4 0  9993","GP_ID":"193425791","FILE":"3266804","PERIAPSIS":"545.977","TLE_LINE2":"2 48019  53.0561 303.4221 0001837  60.2187 299.8984 15.06388250 45479","MEAN_MOTION_DOT":"0.00001032","ARG_OF_PERICENTER":"60.2187","DECAY_DATE":null,"OBJECT_TYPE":"PAYLOAD"}];
